{"type":"FeatureCollection","features":[{"type":"Feature","properties":{"NUTS_ID":"NO07","NAME_LATN":"Nord-Norge","CNTR_CODE":"NO","LEVL_CODE":1},"geometry":{"type":"MultiPolygon","coordinates":[[[[15.39,68.71],[16.2,68.35],[17.15,67.9],[18.0,68.02],[18.62,68.52],[18.97,69.04],[20.08,69.13],[20.56,69.74],[22.21,70.0],[23.56,70.26],[25.09,70.74],[27.05,71.04],[28.34,71.16],[30.17,70.37],[29.57,69.65],[28.24,69.46],[27.2,69.16],[25.41,68.39],[24.56,68.16],[22.38,67.92],[20.23,67.61],[18.1,67.82],[16.85,67.86],[16.54,67.55],[15.47,67.23],[14.53,67.5],[14.07,68.04],[14.15,68.51],[15.39,68.71]]],[[[14.3,68.28],[15.06,68.47],[15.98,68.69],[16.97,68.4],[17.67,68.66],[17.11,69.1],[15.56,69.31],[14.62,68.82],[14.3,68.28]]],[[[17.31,69.41],[17.82,69.75],[18.55,70.0],[19.26,70.27],[18.3,70.47],[17.39,70.18],[17.31,69.41]]]]}},{"type":"Feature","properties":{"NUTS_ID":"NO06","NAME_LATN":"Tr\u00f8ndelag","CNTR_CODE":"NO","LEVL_CODE":1},"geometry":{"type":"Polygon","coordinates":[[[12.19,63.28],[12.86,63.1],[14.06,63.29],[15.45,63.66],[16.97,64.0],[18.04,63.94],[19.12,64.0],[20.12,64.51],[21.15,64.87],[20.67,65.46],[19.39,65.91],[18.12,66.04],[17.12,65.82],[15.49,65.44],[14.47,65.12],[13.63,64.69],[12.55,64.27],[11.84,63.96],[11.38,63.68],[12.19,63.28]]]}},{"type":"Feature","properties":{"NUTS_ID":"NO0A","NAME_LATN":"Vestlandet","CNTR_CODE":"NO","LEVL_CODE":1},"geometry":{"type":"MultiPolygon","coordinates":[[[[5.15,57.97],[5.79,58.11],[6.19,58.32],[7.04,58.45],[7.72,58.27],[8.22,58.44],[8.9,58.75],[9.78,58.99],[10.72,59.08],[11.29,59.22],[11.84,59.55],[12.22,60.02],[12.63,60.39],[12.49,60.95],[11.86,61.44],[11.97,61.97],[12.55,62.48],[12.19,63.28],[11.38,63.68],[9.44,63.47],[8.33,62.78],[7.19,62.15],[6.34,61.08],[5.4,59.9],[4.91,59.55],[4.89,59.02],[5.04,58.54],[5.15,57.97]]],[[[5.21,59.63],[5.72,60.11],[6.15,59.89],[5.89,59.57],[5.21,59.63]]]]}},{"type":"Feature","properties":{"NUTS_ID":"NO02","NAME_LATN":"Innlandet","CNTR_CODE":"NO","LEVL_CODE":1},"geometry":{"type":"Polygon","coordinates":[[[11.29,59.22],[11.84,59.55],[12.22,60.02],[12.63,60.39],[13.25,60.21],[14.33,59.96],[15.43,59.57],[16.46,59.37],[17.12,59.89],[17.52,60.46],[18.05,61.02],[17.64,61.57],[17.12,62.09],[16.52,62.55],[15.27,62.82],[14.35,63.01],[13.38,63.01],[12.19,63.28],[12.55,62.48],[11.97,61.97],[11.86,61.44],[12.49,60.95],[12.63,60.39],[12.22,60.02],[11.84,59.55],[11.29,59.22]]]}},{"type":"Feature","properties":{"NUTS_ID":"NO09","NAME_LATN":"Agder og S\u00f8r-\u00d8stlandet","CNTR_CODE":"NO","LEVL_CODE":1},"geometry":{"type":"Polygon","coordinates":[[[6.57,57.97],[7.04,58.45],[8.22,58.44],[8.9,58.75],[9.78,58.99],[10.72,59.08],[11.29,59.22],[11.84,59.55],[12.22,60.02],[12.49,60.95],[11.86,61.44],[10.58,60.81],[9.36,60.49],[8.22,60.19],[7.45,59.82],[6.67,59.38],[6.07,59.12],[5.72,58.77],[5.98,58.41],[6.57,57.97]]]}},{"type":"Feature","properties":{"NUTS_ID":"NO08","NAME_LATN":"Oslo og Viken","CNTR_CODE":"NO","LEVL_CODE":1},"geometry":{"type":"Polygon","coordinates":[[[11.29,59.22],[12.22,60.02],[12.63,60.39],[13.25,60.21],[14.33,59.96],[15.43,59.57],[16.46,59.37],[17.12,59.89],[16.92,58.96],[15.76,58.52],[14.74,58.43],[13.62,58.7],[12.73,58.88],[11.9,59.01],[11.29,59.22]]]}}]}